ORBCOMM-X               
1 21576U 91050C   24165.74862695  .00000514  00000+0  16798-3 0  9994
2 21576  98.3895 233.0285 0003128 201.0396 159.0665 14.42550364728983
ORBCOMM FM01            
1 23545U 95017A   24165.69476067  .00005959  00000+0  78509-3 0  9993
2 23545  69.9672 266.5064 0005838 192.8526 167.2476 14.80588434557786
ORBCOMM FM02            
1 23546U 95017B   24165.73248857  .00006534  00000+0  86723-3 0  9990
2 23546  69.9694 285.8949 0007352 178.7414 181.3755 14.80216044557433
ORBCOMM FM08            
1 25112U 97084A   24165.88215780  .00002172  00000+0  68772-3 0  9990
2 25112  45.0158 331.9413 0008428 191.2999 168.7663 14.42785046388122
ORBCOMM FM10            
1 25113U 97084B   24165.54520563  .00002011  00000+0  64142-3 0  9991
2 25113  45.0170 335.4357 0005830 165.1185 194.9838 14.42675776563223
ORBCOMM FM11            
1 25114U 97084C   24165.91315421  .00002194  00000+0  69771-3 0  9993
2 25114  45.0155 333.7761 0006649 166.5067 193.5962 14.42552755388241
ORBCOMM FM12            
1 25115U 97084D   24165.87380388  .00002030  00000+0  64937-3 0  9991
2 25115  45.0162 333.6714 0005683 167.8879 192.2109 14.42516646388034
ORBCOMM FM09            
1 25116U 97084E   24165.88599925  .00002055  00000+0  65725-3 0  9995
2 25116  45.0165 334.3101 0006496 153.3125 206.8060 14.42478873388243
